start=new Date('2023-06-07T00:00:00.000Z').valueOf();
sats=[{"EPHEMERIS_TYPE":"0","REV_AT_EPOCH":"12848","INCLINATION":"53.0546","MEAN_ELEMENT_THEORY":"SGP4","REF_FRAME":"TEME","GP_ID":"233356917","OBJECT_NAME":"STARLINK-2022","SEMIMAJOR_AXIS":"6925.385","PERIAPSIS":"546.337","FILE":"3926571","ELEMENT_SET_NO":"999","MEAN_MOTION":"15.06388026","OBJECT_TYPE":"PAYLOAD","COUNTRY_CODE":"US","MEAN_MOTION_DOT":"0.00021983","TLE_LINE2":"2 47643  53.0546 252.2963 0001318  83.8976 276.2163 15.06388026128481","NORAD_CAT_ID":"47643","OBJECT_ID":"2021-012Z","APOAPSIS":"548.163","ARG_OF_PERICENTER":"83.8976","RA_OF_ASC_NODE":"252.2963","MEAN_ANOMALY":"276.2163","RCS_SIZE":"LARGE","TIME_SYSTEM":"UTC","MEAN_MOTION_DDOT":"0.0000000000000","TLE_LINE1":"1 47643U 21012Z   23157.67271194  .00021983  00000-0  14906-2 0  9990","PERIOD":"95.593","CLASSIFICATION_TYPE":"U","LAUNCH_DATE":"2021-02-16","CENTER_NAME":"EARTH","EPOCH":"2023-06-06T16:08:42.311616","DECAY_DATE":null,"SITE":"AFETR","BSTAR":"0.00149060000000","ECCENTRICITY":"0.00013180"},{"LAUNCH_DATE":"2021-02-16","CLASSIFICATION_TYPE":"U","PERIOD":"95.593","TIME_SYSTEM":"UTC","MEAN_MOTION_DDOT":"0.0000000000000","TLE_LINE1":"1 47644U 21012AA  23157.75196287  .00016320  00000-0  11123-2 0  9996","SITE":"AFETR","BSTAR":"0.00111230000000","ECCENTRICITY":"0.00012020","EPOCH":"2023-06-06T18:02:49.591968","DECAY_DATE":null,"CENTER_NAME":"EARTH","APOAPSIS":"548.082","ARG_OF_PERICENTER":"76.0878","OBJECT_ID":"2021-012AA","NORAD_CAT_ID":"47644","TLE_LINE2":"2 47644  53.0543 271.9388 0001202  76.0878 284.0245 15.06388318128229","RCS_SIZE":"LARGE","MEAN_ANOMALY":"284.0245","RA_OF_ASC_NODE":"271.9388","PERIAPSIS":"546.417","ELEMENT_SET_NO":"999","FILE":"3926571","OBJECT_NAME":"STARLINK-2026","SEMIMAJOR_AXIS":"6925.384","GP_ID":"233357168","COUNTRY_CODE":"US","MEAN_MOTION_DOT":"0.00016320","OBJECT_TYPE":"PAYLOAD","MEAN_MOTION":"15.06388318","INCLINATION":"53.0543","EPHEMERIS_TYPE":"0","REV_AT_EPOCH":"12822","REF_FRAME":"TEME","MEAN_ELEMENT_THEORY":"SGP4"},{"SITE":"AFETR","BSTAR":"0.00045907000000","ECCENTRICITY":"0.00002630","EPOCH":"2023-06-06T12:11:13.835328","DECAY_DATE":null,"CENTER_NAME":"EARTH","LAUNCH_DATE":"2021-02-16","CLASSIFICATION_TYPE":"U","PERIOD":"95.592","TIME_SYSTEM":"UTC","TLE_LINE1":"1 47645U 21012AB  23157.50779902  .00006564  00000-0  45907-3 0  9998","MEAN_MOTION_DDOT":"0.0000000000000","RCS_SIZE":"LARGE","MEAN_ANOMALY":"283.4127","RA_OF_ASC_NODE":"243.2735","APOAPSIS":"547.378","ARG_OF_PERICENTER":"76.6891","OBJECT_ID":"2021-012AB","NORAD_CAT_ID":"47645","TLE_LINE2":"2 47645  53.0527 243.2735 0000263  76.6891 283.4127 15.06405712128575","MEAN_MOTION_DOT":"0.00006564","COUNTRY_CODE":"US","OBJECT_TYPE":"PAYLOAD","MEAN_MOTION":"15.06405712","PERIAPSIS":"547.014","FILE":"3926325","ELEMENT_SET_NO":"999","SEMIMAJOR_AXIS":"6925.331","OBJECT_NAME":"STARLINK-2027","GP_ID":"233324335","REF_FRAME":"TEME","MEAN_ELEMENT_THEORY":"SGP4","INCLINATION":"53.0527","EPHEMERIS_TYPE":"0","REV_AT_EPOCH":"12857"},{"INCLINATION":"53.0527","EPHEMERIS_TYPE":"0","REV_AT_EPOCH":"12904","MEAN_ELEMENT_THEORY":"SGP4","REF_FRAME":"TEME","GP_ID":"233325087","PERIAPSIS":"546.572","FILE":"3926325","ELEMENT_SET_NO":"999","SEMIMAJOR_AXIS":"6925.397","OBJECT_NAME":"STARLINK-2028","OBJECT_TYPE":"PAYLOAD","MEAN_MOTION":"15.06384351","MEAN_MOTION_DOT":"0.00002353","COUNTRY_CODE":"US","NORAD_CAT_ID":"47646","TLE_LINE2":"2 47646  53.0527 208.9350 0000996  72.6465 287.4633 15.06384351129047","APOAPSIS":"547.951","ARG_OF_PERICENTER":"72.6465","OBJECT_ID":"2021-012AC","RA_OF_ASC_NODE":"208.9350","RCS_SIZE":"LARGE","MEAN_ANOMALY":"287.4633","PERIOD":"95.593","TIME_SYSTEM":"UTC","MEAN_MOTION_DDOT":"0.0000000000000","TLE_LINE1":"1 47646U 21012AC  23157.36174725  .00002353  00000-0  17689-3 0  9993","LAUNCH_DATE":"2021-02-16","CLASSIFICATION_TYPE":"U","DECAY_DATE":null,"EPOCH":"2023-06-06T08:40:54.962400","CENTER_NAME":"EARTH","SITE":"AFETR","BSTAR":"0.00017689000000","ECCENTRICITY":"0.00009960"},{"RCS_SIZE":"LARGE","MEAN_ANOMALY":"276.3860","RA_OF_ASC_NODE":"271.8891","ARG_OF_PERICENTER":"83.7275","APOAPSIS":"548.132","OBJECT_ID":"2021-012AD","NORAD_CAT_ID":"47647","TLE_LINE2":"2 47647  53.0541 271.8891 0001281  83.7275 276.3860 15.06389882128225","ECCENTRICITY":"0.00012810","SITE":"AFETR","BSTAR":"0.00166270000000","EPOCH":"2023-06-06T18:18:45.045504","DECAY_DATE":null,"CENTER_NAME":"EARTH","LAUNCH_DATE":"2021-02-16","CLASSIFICATION_TYPE":"U","PERIOD":"95.593","MEAN_MOTION_DDOT":"0.0000000000000","TLE_LINE1":"1 47647U 21012AD  23157.76302136  .00024564  00000-0  16627-2 0  9995","TIME_SYSTEM":"UTC","REF_FRAME":"TEME","MEAN_ELEMENT_THEORY":"SGP4","INCLINATION":"53.0541","REV_AT_EPOCH":"12822","EPHEMERIS_TYPE":"0","MEAN_MOTION_DOT":"0.00024564","COUNTRY_CODE":"US","OBJECT_TYPE":"PAYLOAD","MEAN_MOTION":"15.06389882","ELEMENT_SET_NO":"999","FILE":"3926571","PERIAPSIS":"546.357","OBJECT_NAME":"STARLINK-2030","SEMIMAJOR_AXIS":"6925.380","GP_ID":"233357417"},{"GP_ID":"233357668","PERIAPSIS":"546.706","FILE":"3926571","ELEMENT_SET_NO":"999","SEMIMAJOR_AXIS":"6925.367","OBJECT_NAME":"STARLINK-2031","OBJECT_TYPE":"PAYLOAD","MEAN_MOTION":"15.06393973","MEAN_MOTION_DOT":"0.00004474","COUNTRY_CODE":"US","INCLINATION":"53.0544","EPHEMERIS_TYPE":"0","REV_AT_EPOCH":"12850","MEAN_ELEMENT_THEORY":"SGP4","REF_FRAME":"TEME","PERIOD":"95.593","TIME_SYSTEM":"UTC","TLE_LINE1":"1 47648U 21012AE  23157.75379679  .00004474  00000-0  31912-3 0  9994","MEAN_MOTION_DDOT":"0.0000000000000","LAUNCH_DATE":"2021-02-16","CLASSIFICATION_TYPE":"U","DECAY_DATE":null,"EPOCH":"2023-06-06T18:05:28.042656","CENTER_NAME":"EARTH","SITE":"AFETR","ECCENTRICITY":"0.00007600","BSTAR":"0.00031912000000","NORAD_CAT_ID":"47648","TLE_LINE2":"2 47648  53.0544 251.9308 0000760 101.8762 258.2312 15.06393973128503","APOAPSIS":"547.758","ARG_OF_PERICENTER":"101.8762","OBJECT_ID":"2021-012AE","RA_OF_ASC_NODE":"251.9308","RCS_SIZE":"LARGE","MEAN_ANOMALY":"258.2312"},{"TLE_LINE2":"2 47649  53.0530 251.9105 0001113  65.2966 294.8138 15.06397166128506","NORAD_CAT_ID":"47649","OBJECT_ID":"2021-012AF","ARG_OF_PERICENTER":"65.2966","APOAPSIS":"547.993","RA_OF_ASC_NODE":"251.9105","MEAN_ANOMALY":"294.8138","RCS_SIZE":"LARGE","MEAN_MOTION_DDOT":"0.0000000000000","TLE_LINE1":"1 47649U 21012AF  23157.75749400  .00018503  00000-0  12579-2 0  9993","TIME_SYSTEM":"UTC","PERIOD":"95.592","CLASSIFICATION_TYPE":"U","LAUNCH_DATE":"2021-02-16","CENTER_NAME":"EARTH","DECAY_DATE":null,"EPOCH":"2023-06-06T18:10:47.481600","SITE":"AFETR","ECCENTRICITY":"0.00011130","BSTAR":"0.00125790000000","REV_AT_EPOCH":"12850","EPHEMERIS_TYPE":"0","INCLINATION":"53.0530","MEAN_ELEMENT_THEORY":"SGP4","REF_FRAME":"TEME","GP_ID":"233356416","SEMIMAJOR_AXIS":"6925.357","OBJECT_NAME":"STARLINK-2032","FILE":"3926571","ELEMENT_SET_NO":"999","PERIAPSIS":"546.451","MEAN_MOTION":"15.06397166","OBJECT_TYPE":"PAYLOAD","COUNTRY_CODE":"US","MEAN_MOTION_DOT":"0.00018503"},{"RA_OF_ASC_NODE":"251.9777","RCS_SIZE":"LARGE","MEAN_ANOMALY":"278.6990","NORAD_CAT_ID":"47650","TLE_LINE2":"2 47650  53.0527 251.9777 0001164  81.4131 278.6990 15.06394609128481","ARG_OF_PERICENTER":"81.4131","APOAPSIS":"548.036","OBJECT_ID":"2021-012AG","EPOCH":"2023-06-06T17:49:33.529152","DECAY_DATE":null,"CENTER_NAME":"EARTH","ECCENTRICITY":"0.00011640","SITE":"AFETR","BSTAR":"0.00168200000000","PERIOD":"95.592","MEAN_MOTION_DDOT":"0.0000000000000","TLE_LINE1":"1 47650U 21012AG  23157.74274918  .00024857  00000-0  16820-2 0  9993","TIME_SYSTEM":"UTC","LAUNCH_DATE":"2021-02-16","CLASSIFICATION_TYPE":"U","MEAN_ELEMENT_THEORY":"SGP4","REF_FRAME":"TEME","INCLINATION":"53.0527","REV_AT_EPOCH":"12848","EPHEMERIS_TYPE":"0","OBJECT_TYPE":"PAYLOAD","MEAN_MOTION":"15.06394609","MEAN_MOTION_DOT":"0.00024857","COUNTRY_CODE":"US","GP_ID":"233356666","FILE":"3926571","ELEMENT_SET_NO":"999","PERIAPSIS":"546.424","OBJECT_NAME":"STARLINK-2033","SEMIMAJOR_AXIS":"6925.365"},{"APOAPSIS":"547.812","ARG_OF_PERICENTER":"70.9831","OBJECT_ID":"2021-012AH","NORAD_CAT_ID":"47651","TLE_LINE2":"2 47651  53.0542 271.8539 0000852  70.9831 289.1250 15.06397303128221","RCS_SIZE":"LARGE","MEAN_ANOMALY":"289.1250","RA_OF_ASC_NODE":"271.8539","LAUNCH_DATE":"2021-02-16","CLASSIFICATION_TYPE":"U","PERIOD":"95.592","TIME_SYSTEM":"UTC","MEAN_MOTION_DDOT":"0.0000000000000","TLE_LINE1":"1 47651U 21012AH  23157.78145422  .00026126  00000-0  17665-2 0  9994","SITE":"AFETR","ECCENTRICITY":"0.00008520","BSTAR":"0.00176650000000","EPOCH":"2023-06-06T18:45:17.644608","DECAY_DATE":null,"CENTER_NAME":"EARTH","INCLINATION":"53.0542","EPHEMERIS_TYPE":"0","REV_AT_EPOCH":"12822","REF_FRAME":"TEME","MEAN_ELEMENT_THEORY":"SGP4","PERIAPSIS":"546.632","FILE":"3926571","ELEMENT_SET_NO":"999","SEMIMAJOR_AXIS":"6925.357","OBJECT_NAME":"STARLINK-2035","GP_ID":"233356918","COUNTRY_CODE":"US","MEAN_MOTION_DOT":"0.00026126","OBJECT_TYPE":"PAYLOAD","MEAN_MOTION":"15.06397303"},{"OBJECT_TYPE":"PAYLOAD","MEAN_MOTION":"15.06390212","MEAN_MOTION_DOT":"0.00020512","COUNTRY_CODE":"US","GP_ID":"233357169","ELEMENT_SET_NO":"999","FILE":"3926571","PERIAPSIS":"546.363","OBJECT_NAME":"STARLINK-2036","SEMIMAJOR_AXIS":"6925.379","MEAN_ELEMENT_THEORY":"SGP4","REF_FRAME":"TEME","INCLINATION":"53.0541","REV_AT_EPOCH":"12822","EPHEMERIS_TYPE":"0","EPOCH":"2023-06-06T19:17:08.172384","DECAY_DATE":null,"CENTER_NAME":"EARTH","BSTAR":"0.00139230000000","SITE":"AFETR","ECCENTRICITY":"0.00012720","PERIOD":"95.593","TLE_LINE1":"1 47652U 21012AJ  23157.80356681  .00020512  00000-0  13923-2 0  9995","MEAN_MOTION_DDOT":"0.0000000000000","TIME_SYSTEM":"UTC","LAUNCH_DATE":"2021-02-16","CLASSIFICATION_TYPE":"U","RA_OF_ASC_NODE":"271.7088","RCS_SIZE":"LARGE","MEAN_ANOMALY":"287.1141","NORAD_CAT_ID":"47652","TLE_LINE2":"2 47652  53.0541 271.7088 0001272  72.9987 287.1141 15.06390212128229","ARG_OF_PERICENTER":"72.9987","APOAPSIS":"548.124","OBJECT_ID":"2021-012AJ"}];
